{"type": "FeatureCollection", "features": [ {"type": "Feature", "properties": {"norad_id": 66840, "name": "STARLINK-35837", "group": "last-30-days", "lat": 37.35348070943757, "lon": -173.54447264158856, "alt_km": 407.7631975060922, "timestamp": "2025-12-22T23:36:19.411408+00:00", "meta": {"OBJECT_NAME": "STARLINK-35837", "OBJECT_ID": "2025-280V", "EPOCH": "2025-12-22T14:00:01.999872", "MEAN_MOTION": 15.52608522, "ECCENTRICITY": 0.00032619, "INCLINATION": 70.0003, "RA_OF_ASC_NODE": 171.4102, "ARG_OF_PERICENTER": 265.1095, "MEAN_ANOMALY": 59.0342, "EPHEMERIS_TYPE": 0, "CLASSIFICATION_TYPE": "U", "NORAD_CAT_ID": 66840, "ELEMENT_SET_NO": 999, "REV_AT_EPOCH": 447, "BSTAR": -0.0022523844, "MEAN_MOTION_DOT": -0.0013682, "MEAN_MOTION_DDOT": 0}, "tle": {"line1": "1 66840U 25280V   25356.58335648 -.00136820  00000+0 -22524-2 0  9992", "line2": "2 66840  70.0003 171.4102 0003261 265.1095  59.0342 15.52608522  4476"}}, "geometry": {"type": "Point", "coordinates": [-173.54447264158856, 37.35348070943757]}}, {"type": "Feature", "properties": {"norad_id": 66841, "name": "STARLINK-35715", "group": "last-30-days", "lat": 39.095339077574046, "lon": -172.47371771532727, "alt_km": 407.48066754250794, "timestamp": "2025-12-22T23:36:19.411417+00:00", "meta": {"OBJECT_NAME": "STARLINK-35715", "OBJECT_ID": "2025-280W", "EPOCH": "2025-12-22T14:00:01.999872", "MEAN_MOTION": 15.52485555, "ECCENTRICITY": 0.00034615, "INCLINATION": 70.0003, "RA_OF_ASC_NODE": 171.4075, "ARG_OF_PERICENTER": 268.0182, "MEAN_ANOMALY": 58.1205, "EPHEMERIS_TYPE": 0, "CLASSIFICATION_TYPE": "U", "NORAD_CAT_ID": 66841, "ELEMENT_SET_NO": 999, "REV_AT_EPOCH": 447, "BSTAR": 0.00091054879, "MEAN_MOTION_DOT": 0.00056181, "MEAN_MOTION_DDOT": 0}, "tle": {"line1": "1 66841U 25280W   25356.58335648  .00056181  00000+0  91055-3 0  9998", "line2": "2 66841  70.0003 171.4075 0003461 268.0182  58.1205 15.52485555  4474"}}, "geometry": {"type": "Point", "coordinates": [-172.47371771532727, 39.095339077574046]}}, {"type": "Feature", "properties": {"norad_id": 66842, "name": "STARLINK-35769", "group": "last-30-days", "lat": 40.800923527348054, "lon": -171.3655884215403, "alt_km": 407.1268843647704, "timestamp": "2025-12-22T23:36:19.411427+00:00", "meta": {"OBJECT_NAME": "STARLINK-35769", "OBJECT_ID": "2025-280X", "EPOCH": "2025-12-22T14:00:01.999872", "MEAN_MOTION": 15.52493512, "ECCENTRICITY": 0.00032612, "INCLINATION": 70.0003, "RA_OF_ASC_NODE": 171.4054, "ARG_OF_PERICENTER": 270.409, "MEAN_ANOMALY": 57.6344, "EPHEMERIS_TYPE": 0, "CLASSIFICATION_TYPE": "U", "NORAD_CAT_ID": 66842, "ELEMENT_SET_NO": 999, "REV_AT_EPOCH": 447, "BSTAR": 0.00059023491, "MEAN_MOTION_DOT": 0.00036277, "MEAN_MOTION_DDOT": 0}, "tle": {"line1": "1 66842U 25280X   25356.58335648  .00036277  00000+0  59023-3 0  9992", "line2": "2 66842  70.0003 171.4054 0003261 270.4090  57.6344 15.52493512  4475"}}, "geometry": {"type": "Point", "coordinates": [-171.3655884215403, 40.800923527348054]}}, {"type": "Feature", "properties": {"norad_id": 66843, "name": "STARLINK-35997", "group": "last-30-days", "lat": 44.200016056501994, "lon": -168.9517143613155, "alt_km": 406.88035037119334, "timestamp": "2025-12-22T23:36:19.411437+00:00", "meta": {"OBJECT_NAME": "STARLINK-35997", "OBJECT_ID": "2025-280Y", "EPOCH": "2025-12-22T14:00:01.999872", "MEAN_MOTION": 15.52491554, "ECCENTRICITY": 0.00034439, "INCLINATION": 70.0004, "RA_OF_ASC_NODE": 171.4, "ARG_OF_PERICENTER": 267.7635, "MEAN_ANOMALY": 64.1175, "EPHEMERIS_TYPE": 0, "CLASSIFICATION_TYPE": "U", "NORAD_CAT_ID": 66843, "ELEMENT_SET_NO": 999, "REV_AT_EPOCH": 447, "BSTAR": 0.00057733232, "MEAN_MOTION_DOT": 0.00035475, "MEAN_MOTION_DDOT": 0}, "tle": {"line1": "1 66843U 25280Y   25356.58335648  .00035475  00000+0  57733-3 0  9998", "line2": "2 66843  70.0004 171.4000 0003443 267.7635  64.1175 15.52491554  4473"}}, "geometry": {"type": "Point", "coordinates": [-168.9517143613155, 44.200016056501994]}}, {"type": "Feature", "properties": {"norad_id": 66844, "name": "STARLINK-36073", "group": "last-30-days", "lat": 42.505330568825755, "lon": -170.1921607628971, "alt_km": 406.95391624564036, "timestamp": "2025-12-22T23:36:19.411447+00:00", "meta": {"OBJECT_NAME": "STARLINK-36073", "OBJECT_ID": "2025-280Z", "EPOCH": "2025-12-22T14:00:01.999872", "MEAN_MOTION": 15.52496477, "ECCENTRICITY": 0.00032808, "INCLINATION": 70.0004, "RA_OF_ASC_NODE": 171.4032, "ARG_OF_PERICENTER": 269.6868, "MEAN_ANOMALY": 60.2724, "EPHEMERIS_TYPE": 0, "CLASSIFICATION_TYPE": "U", "NORAD_CAT_ID": 66844, "ELEMENT_SET_NO": 999, "REV_AT_EPOCH": 447, "BSTAR": 0.00046638015, "MEAN_MOTION_DOT": 0.00028605, "MEAN_MOTION_DDOT": 0}, "tle": {"line1": "1 66844U 25280Z   25356.58335648  .00028605  00000+0  46638-3 0  9998", "line2": "2 66844  70.0004 171.4032 0003280 269.6868  60.2724 15.52496477  4473"}}, "geometry": {"type": "Point", "coordinates": [-170.1921607628971, 42.505330568825755]}}, {"type": "Feature", "properties": {"norad_id": 66845, "name": "STARLINK-36068", "group": "last-30-days", "lat": 49.18382901499886, "lon": -164.75944413904207, "alt_km": 406.1418027792761, "timestamp": "2025-12-22T23:36:19.411460+00:00", "meta": {"OBJECT_NAME": "STARLINK-36068", "OBJECT_ID": "2025-280AA", "EPOCH": "2025-12-22T14:00:01.999872", "MEAN_MOTION": 15.52498409, "ECCENTRICITY": 0.00032545, "INCLINATION": 70.0006, "RA_OF_ASC_NODE": 171.3935, "ARG_OF_PERICENTER": 269.6812, "MEAN_ANOMALY": 67.9431, "EPHEMERIS_TYPE": 0, "CLASSIFICATION_TYPE": "U", "NORAD_CAT_ID": 66845, "ELEMENT_SET_NO": 999, "REV_AT_EPOCH": 447, "BSTAR": 0.00044131759, "MEAN_MOTION_DOT": 0.00027055, "MEAN_MOTION_DDOT": 0}, "tle": {"line1": "1 66845U 25280AA  25356.58335648  .00027055  00000+0  44132-3 0  9994", "line2": "2 66845  70.0006 171.3935 0003254 269.6812  67.9431 15.52498409  4473"}}, "geometry": {"type": "Point", "coordinates": [-164.75944413904207, 49.18382901499886]}}, {"type": "Feature", "properties": {"norad_id": 66846, "name": "STARLINK-36055", "group": "last-30-days", "lat": 45.88123088964214, "lon": -167.63625268710038, "alt_km": 406.6106818892067, "timestamp": "2025-12-22T23:36:19.411469+00:00", "meta": {"OBJECT_NAME": "STARLINK-36055", "OBJECT_ID": "2025-280AB", "EPOCH": "2025-12-22T14:00:01.999872", "MEAN_MOTION": 15.5249089, "ECCENTRICITY": 0.00033293, "INCLINATION": 70.0004, "RA_OF_ASC_NODE": 171.3978, "ARG_OF_PERICENTER": 267.7391, "MEAN_ANOMALY": 66.0612, "EPHEMERIS_TYPE": 0, "CLASSIFICATION_TYPE": "U", "NORAD_CAT_ID": 66846, "ELEMENT_SET_NO": 999, "REV_AT_EPOCH": 447, "BSTAR": 0.00064210959, "MEAN_MOTION_DOT": 0.00039492, "MEAN_MOTION_DDOT": 0}, "tle": {"line1": "1 66846U 25280AB  25356.58335648  .00039492  00000+0  64211-3 0  9993", "line2": "2 66846  70.0004 171.3978 0003329 267.7391  66.0612 15.52490890  4470"}}, "geometry": {"type": "Point", "coordinates": [-167.63625268710038, 45.88123088964214]}}, {"type": "Feature", "properties": {"norad_id": 66847, "name": "STARLINK-36061", "group": "last-30-days", "lat": 47.55061179766006, "lon": -166.23494142005538, "alt_km": 406.42047741084843, "timestamp": "2025-12-22T23:36:19.411479+00:00", "meta": {"OBJECT_NAME": "STARLINK-36061", "OBJECT_ID": "2025-280AC", "EPOCH": "2025-12-22T14:00:01.999872", "MEAN_MOTION": 15.52477456, "ECCENTRICITY": 0.00032031, "INCLINATION": 70.0005, "RA_OF_ASC_NODE": 171.396, "ARG_OF_PERICENTER": 267.0769, "MEAN_ANOMALY": 68.675, "EPHEMERIS_TYPE": 0, "CLASSIFICATION_TYPE": "U", "NORAD_CAT_ID": 66847, "ELEMENT_SET_NO": 999, "REV_AT_EPOCH": 443, "BSTAR": 0.00046165831, "MEAN_MOTION_DOT": 0.00028292, "MEAN_MOTION_DDOT": 0}, "tle": {"line1": "1 66847U 25280AC  25356.58335648  .00028292  00000+0  46166-3 0  9999", "line2": "2 66847  70.0005 171.3960 0003203 267.0769  68.6750 15.52477456  4436"}}, "geometry": {"type": "Point", "coordinates": [-166.23494142005538, 47.55061179766006]}}, {"type": "Feature", "properties": {"norad_id": 66848, "name": "STARLINK-36091", "group": "last-30-days", "lat": 38.78999635098396, "lon": -179.65896907266804, "alt_km": 370.7415049330684, "timestamp": "2025-12-22T23:36:19.411491+00:00", "meta": {"OBJECT_NAME": "STARLINK-36091", "OBJECT_ID": "2025-281A", "EPOCH": "2025-12-22T14:00:01.999872", "MEAN_MOTION": 15.65783189, "ECCENTRICITY": 0.00013409, "INCLINATION": 43.0003, "RA_OF_ASC_NODE": 62.3332, "ARG_OF_PERICENTER": 286.5582, "MEAN_ANOMALY": 89.2834, "EPHEMERIS_TYPE": 0, "CLASSIFICATION_TYPE": "U", "NORAD_CAT_ID": 66848, "ELEMENT_SET_NO": 999, "REV_AT_EPOCH": 297, "BSTAR": -0.021194052, "MEAN_MOTION_DOT": -0.01950534, "MEAN_MOTION_DDOT": 0}, "tle": {"line1": "1 66848U 25281A   25356.58335648 -.01950534  00000+0 -21194-1 0  9999", "line2": "2 66848  43.0003  62.3332 0001340 286.5582  89.2834 15.65783189  2972"}}, "geometry": {"type": "Point", "coordinates": [-179.65896907266804, 38.78999635098396]}}, {"type": "Feature", "properties": {"norad_id": 66849, "name": "STARLINK-36102", "group": "last-30-days", "lat": 38.105757074258406, "lon": -177.37510683835444, "alt_km": 370.88692940868987, "timestamp": "2025-12-22T23:36:19.411501+00:00", "meta": {"OBJECT_NAME": "STARLINK-36102", "OBJECT_ID": "2025-281B", "EPOCH": "2025-12-22T14:00:01.999872", "MEAN_MOTION": 15.65783343, "ECCENTRICITY": 0.0001392, "INCLINATION": 43.0005, "RA_OF_ASC_NODE": 62.3279, "ARG_OF_PERICENTER": 286.7331, "MEAN_ANOMALY": 91.0261, "EPHEMERIS_TYPE": 0, "CLASSIFICATION_TYPE": "U", "NORAD_CAT_ID": 66849, "ELEMENT_SET_NO": 999, "REV_AT_EPOCH": 297, "BSTAR": -0.021207071, "MEAN_MOTION_DOT": -0.01951639, "MEAN_MOTION_DDOT": 0}, "tle": {"line1": "1 66849U 25281B   25356.58335648 -.01951639  00000+0 -21207-1 0  9992", "line2": "2 66849  43.0005  62.3279 0001392 286.7331  91.0261 15.65783343  2973"}}, "geometry": {"type": "Point", "coordinates": [-177.37510683835444, 38.105757074258406]}}]}